[{"OBJECT_NAME":"STARLINK-1143","OBJECT_ID":"2020-012B","EPOCH":"2026-03-09T22:47:16.050048","MEAN_MOTION":15.62989311,"ECCENTRICITY":0.00073955,"INCLINATION":53.0474,"RA_OF_ASC_NODE":328.6332,"ARG_OF_PERICENTER":96.968,"MEAN_ANOMALY":263.2175,"EPHEMERIS_TYPE":0,"CLASSIFICATION_TYPE":"U","NORAD_CAT_ID":45179,"ELEMENT_SET_NO":999,"REV_AT_EPOCH":33596,"BSTAR":0.0013180943,"MEAN_MOTION_DOT":0.00123267,"MEAN_MOTION_DDOT":0},{"OBJECT_NAME":"SPIRIT","OBJECT_ID":"2023-185G","EPOCH":"2026-03-09T23:35:10.605696","MEAN_MOTION":15.62567378,"ECCENTRICITY":0.00056946,"INCLINATION":97.3383,"RA_OF_ASC_NODE":148.9305,"ARG_OF_PERICENTER":182.4222,"MEAN_ANOMALY":177.701,"EPHEMERIS_TYPE":0,"CLASSIFICATION_TYPE":"U","NORAD_CAT_ID":58468,"ELEMENT_SET_NO":999,"REV_AT_EPOCH":12699,"BSTAR":0.00094806213,"MEAN_MOTION_DOT":0.00085183,"MEAN_MOTION_DDOT":0}]
